[Satellite]
VERSION=1.1
NAME=NIGCOMSAT 1R
NICKNAME=NIGCOMSAT 1R
TLE1=1 38014U 11077A   15053.86801874  .00000120  00000-0  00000+0 0  9990
TLE2=2 38014   0.0087  53.1874 0001645 208.9378 245.2446  1.00270388 11653
